0 LEASAT 2 PKM
1 15244U 84093E   13283.09460648  .00004722  00000-0  73711-3 0  3142
2 15244 027.1585 235.7464 4610046 122.4902 018.3685 06.27757124613583
0 LEASAT 2 PKM
1 15244U 84093E   13284.20209052  .00004985  00000-0  78335-3 0  3155
2 15244 027.1578 234.2005 4609908 125.0568 001.1868 06.27766512613654
0 LEASAT 2 PKM
1 15244U 84093E   13286.12247685  .00004723  00000-0  75582-3 0  3175
2 15244 027.1567 231.5201 4609677 129.5078 021.1924 06.27785968613772
0 LEASAT 2 PKM
1 15244U 84093E   13287.22917122  .00005122  00000-0  82652-3 0  3188
2 15244 027.1563 229.9751 4609541 132.0746 002.3434 06.27796486613842
0 LEASAT 2 PKM
1 15244U 84093E   13288.81195096  .00005841  00000-0  94674-3 0  3198
2 15244 027.1559 227.7651 4609285 135.7467 339.5562 06.27822912613949
0 LEASAT 2 PKM
1 15244U 84093E   13289.76879257  .00006064  00000-0  98325-3 0  3208
2 15244 027.1559 226.4291 4609115 137.9642 342.1695 06.27836911614005
0 LEASAT 2 PKM
1 15244U 84093E   13290.10466435  .00005685  00000-0  92296-3 0  3218
2 15244 027.1561 225.9603 4609081 138.7449 021.2913 06.27841891614028
0 LEASAT 2 PKM
1 15244U 84093E   13291.21022677  .00005878  00000-0  94878-3 0  3220
2 15244 027.1554 224.4161 4609044 141.3103 000.1144 06.27856671614090
0 LEASAT 2 PKM
1 15244U 84093E   13292.79520125  .00006642  00000-0  10647-2 0  3237
2 15244 027.1550 222.2041 4608797 144.9808 342.6372 06.27872158614190
0 LEASAT 2 PKM
1 15244U 84093E   13293.12809028  .00006112  00000-0  97884-3 0  3249
2 15244 027.1551 221.7394 4608769 145.7543 015.0608 06.27879368614216
0 LEASAT 2 PKM
1 15244U 84093E   13294.08273148  .00005782  00000-0  92195-3 0  3256
2 15244 027.1553 220.4056 4608677 147.9698 012.8828 06.27895476614275
0 LEASAT 2 PKM
1 15244U 84093E   13295.18486087  .00006100  00000-0  96889-3 0  3266
2 15244 027.1553 218.8662 4608576 150.5263 344.1527 06.27908798614342
0 LEASAT 2 PKM
1 15244U 84093E   13296.15658565  .00005961  00000-0  94508-3 0  3277
2 15244 027.1555 217.5091 4608473 152.7815 020.6850 06.27926092614408
